[{"OBJECT_NAME":"STARLINK-31446","OBJECT_ID":"2024-056V","EPOCH":"2026-03-09T11:13:51.944448","MEAN_MOTION":15.27588134,"ECCENTRICITY":8.048e-5,"INCLINATION":43.0026,"RA_OF_ASC_NODE":231.6832,"ARG_OF_PERICENTER":272.0223,"MEAN_ANOMALY":88.0536,"EPHEMERIS_TYPE":0,"CLASSIFICATION_TYPE":"U","NORAD_CAT_ID":59315,"ELEMENT_SET_NO":999,"REV_AT_EPOCH":11112,"BSTAR":-7.7996021e-5,"MEAN_MOTION_DOT":-2.408e-5,"MEAN_MOTION_DDOT":0},{"OBJECT_NAME":"YAOGAN-43 01G","OBJECT_ID":"2024-148G","EPOCH":"2026-03-09T10:38:37.087584","MEAN_MOTION":15.28332833,"ECCENTRICITY":0.00073829,"INCLINATION":35.0006,"RA_OF_ASC_NODE":62.0013,"ARG_OF_PERICENTER":306.3543,"MEAN_ANOMALY":53.6492,"EPHEMERIS_TYPE":0,"CLASSIFICATION_TYPE":"U","NORAD_CAT_ID":60464,"ELEMENT_SET_NO":999,"REV_AT_EPOCH":8700,"BSTAR":0.00035872736,"MEAN_MOTION_DOT":0.00010133,"MEAN_MOTION_DDOT":0}]
